H1 CPF 01  gfz 2022 04 09 00  5991 terrasarx 
H2 0702601  6201 31698    2022 04 09 00 59 42 2022 04 14 00 00 42   120 1 1  0 0 0
H9
10 0 59680  12942.000000  0    5438444.968   3671701.555  -2107868.317
10 0 59680  13062.000000  0    5261653.263   3337226.940  -2947807.544
10 0 59680  13182.000000  0    4986836.543   2948543.301  -3736011.064
10 0 59680  13302.000000  0    4617999.240   2514158.451  -4458711.376
10 0 59680  13422.000000  0    4160929.273   2043277.245  -5103320.240
10 0 59680  13542.000000  0    3623098.092   1545605.430  -5658641.138
10 0 59680  13662.000000  0    3013530.350   1031149.968  -6115054.833
10 0 59680  13782.000000  0    2342645.443    510019.172  -6464675.473
10 0 59680  13902.000000  0    1622075.624     -7772.941  -6701474.595
10 0 59680  14022.000000  0     864465.187   -512494.860  -6821375.456
10 0 59680  14142.000000  0      83250.004   -994876.680  -6822316.364
10 0 59680  14262.000000  0    -707576.000  -1446275.571  -6704280.349
10 0 59680  14382.000000  0   -1493704.851  -1858826.204  -6469296.026
10 0 59680  14502.000000  0   -2260767.822  -2225575.542  -6121406.930
10 0 59680  14622.000000  0   -2994592.319  -2540598.622  -5666608.671
10 0 59680  14742.000000  0   -3681459.966  -2799094.887  -5112757.008
10 0 59680  14862.000000  0   -4308364.289  -2997464.027  -4469444.201
10 0 59680  14982.000000  0   -4863260.354  -3133358.069  -3747843.138
10 0 59680  15102.000000  0   -5335302.182  -3205708.931  -2960522.606
10 0 59680  15222.000000  0   -5715063.199  -3214730.728  -2121234.521
10 0 59680  15342.000000  0   -5994733.257  -3161895.761  -1244675.914
10 0 59680  15462.000000  0   -6168287.380  -3049884.682   -346230.394
10 0 59680  15582.000000  0   -6231621.412  -2882511.136    558306.515
10 0 59680  15702.000000  0   -6182651.111  -2664623.009   1453012.588
10 0 59680  15822.000000  0   -6021369.720  -2401981.949   2322129.454
10 0 59680  15942.000000  0   -5749862.163  -2101124.021   3150348.644
10 0 59680  16062.000000  0   -5372279.191  -1769206.483   3923088.689
10 0 59680  16182.000000  0   -4894767.429  -1413842.935   4626758.362
10 0 59680  16302.000000  0   -4325360.186  -1042932.152   5248996.135
10 0 59680  16422.000000  0   -3673834.663   -664486.037   5778885.458
10 0 59680  16542.000000  0   -2951536.245   -286458.627   6207143.950
10 0 59680  16662.000000  0   -2171172.773     83419.854   6526281.126
10 0 59680  16782.000000  0   -1346584.694    437798.541   6730722.367
10 0 59680  16902.000000  0    -492496.838    769849.691   6816900.250
10 0 59680  17022.000000  0     375744.932   1073398.914   6783312.464
10 0 59680  17142.000000  0    1242448.455   1343039.349   6630546.271
10 0 59680  17262.000000  0    2091857.960   1574228.341   6361268.816
10 0 59680  17382.000000  0    2908439.532   1763364.051   5980183.417
10 0 59680  17502.000000  0    3677166.479   1907841.780   5493953.233
10 0 59680  17622.000000  0    4383798.990   2006088.690   4911090.051
10 0 59680  17742.000000  0    5015151.951   2057577.315   4241812.161
10 0 59680  17862.000000  0    5559350.310   2062817.378   3497871.420
10 0 59680  17982.000000  0    6006062.037   2023323.637   2692346.326
10 0 59680  18102.000000  0    6346701.728   1941562.849   1839412.534
10 0 59680  18222.000000  0    6574605.423   1820879.892    954089.678
10 0 59680  18342.000000  0    6685166.212   1665403.951     51969.826
10 0 59680  18462.000000  0    6675929.991   1479939.180   -851065.553
10 0 59680  18582.000000  0    6546646.487   1269840.605  -1739134.450
10 0 59680  18702.000000  0    6299277.516   1040878.266  -2596640.403
10 0 59680  18822.000000  0    5937960.674    799094.532  -3408553.287
10 0 59680  18942.000000  0    5468929.148    550658.697  -4160676.057
10 0 59680  19062.000000  0    4900391.227    301721.507  -4839892.785
10 0 59680  19182.000000  0    4242373.586     58273.410  -5434391.983
10 0 59680  19302.000000  0    3506534.089   -173989.493  -5933863.537
10 0 59680  19422.000000  0    2705947.434   -389789.639  -6329668.349
10 0 59680  19542.000000  0    1854866.991   -584380.178  -6614976.253
10 0 59680  19662.000000  0     968471.042   -753643.032  -6784872.377
10 0 59680  19782.000000  0      62594.535   -894171.422  -6836434.052
10 0 59680  19902.000000  0    -846549.028  -1003334.720  -6768774.470
10 0 59680  20022.000000  0   -1742650.446  -1079326.148  -6583056.557
10 0 59680  20142.000000  0   -2609591.317  -1121191.987  -6282475.066
10 0 59680  20262.000000  0   -3431727.162  -1128842.136  -5872206.279
10 0 59680  20382.000000  0   -4194165.535  -1103042.333  -5359329.725
10 0 59680  20502.000000  0   -4883037.413  -1045387.492  -4752717.482
10 0 59680  20622.000000  0   -5485753.544   -958256.648  -4062891.805
10 0 59680  20742.000000  0   -5991242.550   -844750.356  -3301853.236
10 0 59680  20862.000000  0   -6390165.863   -708610.989  -2482879.423
10 0 59680  20982.000000  0   -6675102.612   -554127.542  -1620297.409
10 0 59680  21102.000000  0   -6840700.903   -386027.754   -729233.599
10 0 59680  21222.000000  0   -6883790.046   -209357.895    174656.666
10 0 59680  21342.000000  0   -6803447.519    -29354.411   1075470.660
10 0 59680  21462.000000  0   -6601023.368    148688.423   1957345.814
10 0 59680  21582.000000  0   -6280118.210    319552.159   2804748.469
10 0 59680  21702.000000  0   -5846515.396    478226.010   3602756.259
10 0 59680  21822.000000  0   -5308068.845    620033.240   4337327.360
10 0 59680  21942.000000  0   -4674550.990    740748.514   4995550.655
10 0 59680  22062.000000  0   -3957464.832    836703.631   5565872.146
10 0 59680  22182.000000  0   -3169826.113    904879.465   6038294.872
10 0 59680  22302.000000  0   -2325918.951    942981.564   6404550.129
10 0 59680  22422.000000  0   -1441030.189    949498.915   6658237.076
10 0 59680  22542.000000  0    -531167.752    923744.487   6794927.568
10 0 59680  22662.000000  0     387229.527    865876.341   6812237.565
10 0 59680  22782.000000  0    1297587.836    776899.399   6709865.729
10 0 59680  22902.000000  0    2183496.095    658648.280   6489598.464
10 0 59680  23022.000000  0    3029000.752    513750.898   6155281.251
10 0 59680  23142.000000  0    3818894.468    345573.331   5712756.446
10 0 59680  23262.000000  0    4538992.755    158146.886   5169766.625
10 0 59680  23382.000000  0    5176393.731    -43921.739   4535825.225
10 0 59680  23502.000000  0    5719717.027   -255555.404   3822055.603
10 0 59680  23622.000000  0    6159317.275   -471323.615   3040999.565
10 0 59680  23742.000000  0    6487466.436   -685570.110   2206397.109
10 0 59680  23862.000000  0    6698497.988   -892548.089   1332941.258
10 0 59680  23982.000000  0    6788911.790  -1086559.865    436015.224
10 0 59680  24102.000000  0    6757438.064  -1262096.967   -468586.056
10 0 59680  24222.000000  0    6605054.001  -1413977.566  -1364944.169
10 0 59680  24342.000000  0    6334955.094  -1537476.866  -2237305.718
10 0 59680  24462.000000  0    5952481.801  -1628447.708  -3070366.651
10 0 59680  24582.000000  0    5465004.259  -1683428.360  -3849544.698
10 0 59680  24702.000000  0    4881769.145  -1699734.470  -4561235.226
10 0 59680  24822.000000  0    4213713.191  -1675533.477  -5193045.988
10 0 59680  24942.000000  0    3473247.323  -1609900.877  -5734006.892
10 0 59680  25062.000000  0    2674017.405  -1502856.525  -6174750.530
10 0 59680  25182.000000  0    1830648.831  -1355380.119  -6507663.261
10 0 59680  25302.000000  0     958477.553  -1169406.307  -6727006.521
10 0 59680  25422.000000  0      73273.216   -947800.731  -6829005.311
10 0 59680  25542.000000  0    -809041.045   -694316.289  -6811905.854
10 0 59680  25662.000000  0   -1672668.198   -413530.870  -6676002.533
10 0 59680  25782.000000  0   -2502214.174   -110766.420  -6423632.973
10 0 59680  25902.000000  0   -3282955.768    208008.488  -6059141.155
10 0 59680  26022.000000  0   -4001097.582    536291.888  -5588811.612
10 0 59680  26142.000000  0   -4644016.429    867175.900  -5020771.600
10 0 59680  26262.000000  0   -5200486.695   1193486.034  -4364862.793
10 0 59680  26382.000000  0   -5660884.930   1507932.039  -3632482.143
10 0 59680  26502.000000  0   -6017366.236   1803265.509  -2836392.118
10 0 59680  26622.000000  0   -6264009.727   2072440.563  -1990504.014
10 0 59680  26742.000000  0   -6396929.098   2308775.032  -1109637.055
10 0 59680  26862.000000  0   -6414344.646   2506107.882   -209256.451
10 0 59680  26982.000000  0   -6316613.377   2658948.019    694804.373
10 0 59680  27102.000000  0   -6106215.296   2762611.268   1586630.263
10 0 59680  27222.000000  0   -5787696.868   2813342.140   2450513.604
10 0 59680  27342.000000  0   -5367572.398   2808416.001   3271239.447
10 0 59680  27462.000000  0   -4854187.187   2746219.577   4034361.110
10 0 59680  27582.000000  0   -4257544.076   2626307.278   4726459.019
10 0 59680  27702.000000  0   -3589100.707   2449433.219   5335377.297
10 0 59680  27822.000000  0   -2861542.276   2217558.531   5850436.066
10 0 59680  27942.000000  0   -2088533.121   1933833.504   6262615.710
10 0 59680  28062.000000  0   -1284453.824   1602554.588   6564709.242
10 0 59680  28182.000000  0    -464129.790   1229097.891   6751441.002
10 0 59680  28302.000000  0     357442.203    819830.491   6819552.268
10 0 59680  28422.000000  0    1165367.300    382001.395   6767854.482
10 0 59680  28542.000000  0    1945121.263    -76386.283   6597248.525
10 0 59680  28662.000000  0    2682810.446   -546720.768   6310710.866
10 0 59680  28782.000000  0    3365419.900  -1019942.550   5913245.871
10 0 59680  28902.000000  0    3981046.075  -1486717.543   5411803.852
10 0 59680  29022.000000  0    4519108.545  -1937620.842   4815164.890
10 0 59680  29142.000000  0    4970537.504  -2363326.496   4133791.414
10 0 59680  29262.000000  0    5327935.392  -2754800.780   3379649.829
10 0 59680  29382.000000  0    5585706.617  -3103494.310   2566000.989
99
